STARLINK-35689          
1 66494U 25263K   25330.16670139 -.01280288  00000+0 -45577-2 0  9993
2 66494  42.9981 224.4380 0002036 272.2012  37.2002 15.90369907  2975
STARLINK-35832          
1 66495U 25263L   25330.16670139 -.01306817  00000+0 -46525-2 0  9995
2 66495  42.9981 224.4099 0001938 264.7219  55.7020 15.90421257  2970
STARLINK-35909          
1 66496U 25263M   25330.16670139 -.01334438  00000+0 -47589-2 0  9997
2 66496  42.9983 224.4024 0001911 275.6225  47.8147 15.90443311  2977
STARLINK-35899          
1 66497U 25263N   25330.16670139 -.01333384  00000+0 -47525-2 0  9997
2 66497  42.9981 224.3955 0001801 266.7347  59.3487 15.90453307  2973
STARLINK-35907          
1 66498U 25263P   25330.16670139 -.01329918  00000+0 -47350-2 0  9992
2 66498  42.9981 224.3887 0002110 271.9773  56.8279 15.90463388  2974
STARLINK-35816          
1 66499U 25263Q   25330.16670139 -.01370646  00000+0 -48859-2 0  9992
2 66499  42.9982 224.3762 0001996 275.0570  58.6769 15.90522269  2977
STARLINK-35894          
1 66500U 25263R   25330.16670139 -.01358094  00000+0 -48406-2 0  9996
2 66500  42.9983 224.3830 0001903 270.6379  60.4522 15.90500929  2970
STARLINK-35897          
1 66501U 25263S   25330.16670139 -.01343222  00000+0 -47790-2 0  9999
2 66501  42.9984 224.3696 0001875 276.6522  59.8008 15.90506271  2973
STARLINK-35922          
1 66502U 25263T   25330.16670139 -.01363717  00000+0 -48494-2 0  9993
2 66502  42.9985 224.3481 0002069 272.6496  72.2786 15.90554284  2978
STARLINK-35917          
1 66503U 25263U   25329.25004630 -.01645811  76465-3 -44134-2 0  9996
2 66503  42.9985 230.0344 0001726 273.5222 216.7909 15.93619469  2823
STARLINK-35916          
1 66504U 25263V   25330.16670139 -.02159106  00000+0 -81160-2 0  9998
2 66504  42.9983 224.3276 0001815 267.7898  85.0909 15.89891450  2975
STARLINK-34766          
1 66505U 25263W   25330.16670139 -.01391655  00000+0 -49659-2 0  9992
2 66505  42.9984 224.3611 0001460 276.3564  63.3794 15.90551575  2976
