CCSDS_OMM_VERS = 2.0
CREATION_DATE  = 
ORIGINATOR     = 

OBJECT_NAME    = STARLINK-35689
OBJECT_ID      = 2025-263K
CENTER_NAME    = EARTH
REF_FRAME      = TEME
TIME_SYSTEM    = UTC
MEAN_ELEMENT_THEORY = SGP/SGP4

EPOCH          = 2025-11-26T04:00:03.000096
MEAN_MOTION    = 15.90369907
ECCENTRICITY   = .0002036
INCLINATION    = 42.9981
RA_OF_ASC_NODE = 224.4380
ARG_OF_PERICENTER = 272.2012
MEAN_ANOMALY   = 37.2002

EPHEMERIS_TYPE = 0
CLASSIFICATION_TYPE = U
NORAD_CAT_ID   = 66494
ELEMENT_SET_NO = 999
REV_AT_EPOCH   = 297
BSTAR          = -.45577E-2
MEAN_MOTION_DOT = -.1280288E-1
MEAN_MOTION_DDOT = 0

CCSDS_OMM_VERS = 2.0
CREATION_DATE  = 
ORIGINATOR     = 

OBJECT_NAME    = STARLINK-35832
OBJECT_ID      = 2025-263L
CENTER_NAME    = EARTH
REF_FRAME      = TEME
TIME_SYSTEM    = UTC
MEAN_ELEMENT_THEORY = SGP/SGP4

EPOCH          = 2025-11-26T04:00:03.000096
MEAN_MOTION    = 15.90421257
ECCENTRICITY   = .0001938
INCLINATION    = 42.9981
RA_OF_ASC_NODE = 224.4099
ARG_OF_PERICENTER = 264.7219
MEAN_ANOMALY   = 55.7020

EPHEMERIS_TYPE = 0
CLASSIFICATION_TYPE = U
NORAD_CAT_ID   = 66495
ELEMENT_SET_NO = 999
REV_AT_EPOCH   = 297
BSTAR          = -.46525E-2
MEAN_MOTION_DOT = -.1306817E-1
MEAN_MOTION_DDOT = 0

CCSDS_OMM_VERS = 2.0
CREATION_DATE  = 
ORIGINATOR     = 

OBJECT_NAME    = STARLINK-35909
OBJECT_ID      = 2025-263M
CENTER_NAME    = EARTH
REF_FRAME      = TEME
TIME_SYSTEM    = UTC
MEAN_ELEMENT_THEORY = SGP/SGP4

EPOCH          = 2025-11-26T04:00:03.000096
MEAN_MOTION    = 15.90443311
ECCENTRICITY   = .0001911
INCLINATION    = 42.9983
RA_OF_ASC_NODE = 224.4024
ARG_OF_PERICENTER = 275.6225
MEAN_ANOMALY   = 47.8147

EPHEMERIS_TYPE = 0
CLASSIFICATION_TYPE = U
NORAD_CAT_ID   = 66496
ELEMENT_SET_NO = 999
REV_AT_EPOCH   = 297
BSTAR          = -.47589E-2
MEAN_MOTION_DOT = -.1334438E-1
MEAN_MOTION_DDOT = 0

CCSDS_OMM_VERS = 2.0
CREATION_DATE  = 
ORIGINATOR     = 

OBJECT_NAME    = STARLINK-35899
OBJECT_ID      = 2025-263N
CENTER_NAME    = EARTH
REF_FRAME      = TEME
TIME_SYSTEM    = UTC
MEAN_ELEMENT_THEORY = SGP/SGP4

EPOCH          = 2025-11-26T04:00:03.000096
MEAN_MOTION    = 15.90453307
ECCENTRICITY   = .0001801
INCLINATION    = 42.9981
RA_OF_ASC_NODE = 224.3955
ARG_OF_PERICENTER = 266.7347
MEAN_ANOMALY   = 59.3487

EPHEMERIS_TYPE = 0
CLASSIFICATION_TYPE = U
NORAD_CAT_ID   = 66497
ELEMENT_SET_NO = 999
REV_AT_EPOCH   = 297
BSTAR          = -.47525E-2
MEAN_MOTION_DOT = -.1333384E-1
MEAN_MOTION_DDOT = 0

CCSDS_OMM_VERS = 2.0
CREATION_DATE  = 
ORIGINATOR     = 

OBJECT_NAME    = STARLINK-35907
OBJECT_ID      = 2025-263P
CENTER_NAME    = EARTH
REF_FRAME      = TEME
TIME_SYSTEM    = UTC
MEAN_ELEMENT_THEORY = SGP/SGP4

EPOCH          = 2025-11-26T04:00:03.000096
MEAN_MOTION    = 15.90463388
ECCENTRICITY   = .000211
INCLINATION    = 42.9981
RA_OF_ASC_NODE = 224.3887
ARG_OF_PERICENTER = 271.9773
MEAN_ANOMALY   = 56.8279

EPHEMERIS_TYPE = 0
CLASSIFICATION_TYPE = U
NORAD_CAT_ID   = 66498
ELEMENT_SET_NO = 999
REV_AT_EPOCH   = 297
BSTAR          = -.4735E-2
MEAN_MOTION_DOT = -.1329918E-1
MEAN_MOTION_DDOT = 0

CCSDS_OMM_VERS = 2.0
CREATION_DATE  = 
ORIGINATOR     = 

OBJECT_NAME    = STARLINK-35816
OBJECT_ID      = 2025-263Q
CENTER_NAME    = EARTH
REF_FRAME      = TEME
TIME_SYSTEM    = UTC
MEAN_ELEMENT_THEORY = SGP/SGP4

EPOCH          = 2025-11-26T04:00:03.000096
MEAN_MOTION    = 15.90522269
ECCENTRICITY   = .0001996
INCLINATION    = 42.9982
RA_OF_ASC_NODE = 224.3762
ARG_OF_PERICENTER = 275.0570
MEAN_ANOMALY   = 58.6769

EPHEMERIS_TYPE = 0
CLASSIFICATION_TYPE = U
NORAD_CAT_ID   = 66499
ELEMENT_SET_NO = 999
REV_AT_EPOCH   = 297
BSTAR          = -.48859E-2
MEAN_MOTION_DOT = -.1370646E-1
MEAN_MOTION_DDOT = 0

CCSDS_OMM_VERS = 2.0
CREATION_DATE  = 
ORIGINATOR     = 

OBJECT_NAME    = STARLINK-35894
OBJECT_ID      = 2025-263R
CENTER_NAME    = EARTH
REF_FRAME      = TEME
TIME_SYSTEM    = UTC
MEAN_ELEMENT_THEORY = SGP/SGP4

EPOCH          = 2025-11-26T04:00:03.000096
MEAN_MOTION    = 15.90500929
ECCENTRICITY   = .0001903
INCLINATION    = 42.9983
RA_OF_ASC_NODE = 224.3830
ARG_OF_PERICENTER = 270.6379
MEAN_ANOMALY   = 60.4522

EPHEMERIS_TYPE = 0
CLASSIFICATION_TYPE = U
NORAD_CAT_ID   = 66500
ELEMENT_SET_NO = 999
REV_AT_EPOCH   = 297
BSTAR          = -.48406E-2
MEAN_MOTION_DOT = -.1358094E-1
MEAN_MOTION_DDOT = 0

CCSDS_OMM_VERS = 2.0
CREATION_DATE  = 
ORIGINATOR     = 

OBJECT_NAME    = STARLINK-35897
OBJECT_ID      = 2025-263S
CENTER_NAME    = EARTH
REF_FRAME      = TEME
TIME_SYSTEM    = UTC
MEAN_ELEMENT_THEORY = SGP/SGP4

EPOCH          = 2025-11-26T04:00:03.000096
MEAN_MOTION    = 15.90506271
ECCENTRICITY   = .0001875
INCLINATION    = 42.9984
RA_OF_ASC_NODE = 224.3696
ARG_OF_PERICENTER = 276.6522
MEAN_ANOMALY   = 59.8008

EPHEMERIS_TYPE = 0
CLASSIFICATION_TYPE = U
NORAD_CAT_ID   = 66501
ELEMENT_SET_NO = 999
REV_AT_EPOCH   = 297
BSTAR          = -.4779E-2
MEAN_MOTION_DOT = -.1343222E-1
MEAN_MOTION_DDOT = 0

CCSDS_OMM_VERS = 2.0
CREATION_DATE  = 
ORIGINATOR     = 

OBJECT_NAME    = STARLINK-35922
OBJECT_ID      = 2025-263T
CENTER_NAME    = EARTH
REF_FRAME      = TEME
TIME_SYSTEM    = UTC
MEAN_ELEMENT_THEORY = SGP/SGP4

EPOCH          = 2025-11-26T04:00:03.000096
MEAN_MOTION    = 15.90554284
ECCENTRICITY   = .0002069
INCLINATION    = 42.9985
RA_OF_ASC_NODE = 224.3481
ARG_OF_PERICENTER = 272.6496
MEAN_ANOMALY   = 72.2786

EPHEMERIS_TYPE = 0
CLASSIFICATION_TYPE = U
NORAD_CAT_ID   = 66502
ELEMENT_SET_NO = 999
REV_AT_EPOCH   = 297
BSTAR          = -.48494E-2
MEAN_MOTION_DOT = -.1363717E-1
MEAN_MOTION_DDOT = 0

CCSDS_OMM_VERS = 2.0
CREATION_DATE  = 
ORIGINATOR     = 

OBJECT_NAME    = STARLINK-35917
OBJECT_ID      = 2025-263U
CENTER_NAME    = EARTH
REF_FRAME      = TEME
TIME_SYSTEM    = UTC
MEAN_ELEMENT_THEORY = SGP/SGP4

EPOCH          = 2025-11-25T06:00:04.000320
MEAN_MOTION    = 15.93619469
ECCENTRICITY   = .00017264
INCLINATION    = 42.9985
RA_OF_ASC_NODE = 230.0344
ARG_OF_PERICENTER = 273.5222
MEAN_ANOMALY   = 216.7909

EPHEMERIS_TYPE = 0
CLASSIFICATION_TYPE = U
NORAD_CAT_ID   = 66503
ELEMENT_SET_NO = 999
REV_AT_EPOCH   = 282
BSTAR          = -.44134161E-2
MEAN_MOTION_DOT = -.1645811E-1
MEAN_MOTION_DDOT = .76465101E-3

CCSDS_OMM_VERS = 2.0
CREATION_DATE  = 
ORIGINATOR     = 

OBJECT_NAME    = STARLINK-35916
OBJECT_ID      = 2025-263V
CENTER_NAME    = EARTH
REF_FRAME      = TEME
TIME_SYSTEM    = UTC
MEAN_ELEMENT_THEORY = SGP/SGP4

EPOCH          = 2025-11-26T04:00:03.000096
MEAN_MOTION    = 15.89891450
ECCENTRICITY   = .0001815
INCLINATION    = 42.9983
RA_OF_ASC_NODE = 224.3276
ARG_OF_PERICENTER = 267.7898
MEAN_ANOMALY   = 85.0909

EPHEMERIS_TYPE = 0
CLASSIFICATION_TYPE = U
NORAD_CAT_ID   = 66504
ELEMENT_SET_NO = 999
REV_AT_EPOCH   = 297
BSTAR          = -.8116E-2
MEAN_MOTION_DOT = -.2159106E-1
MEAN_MOTION_DDOT = 0

CCSDS_OMM_VERS = 2.0
CREATION_DATE  = 
ORIGINATOR     = 

OBJECT_NAME    = STARLINK-34766
OBJECT_ID      = 2025-263W
CENTER_NAME    = EARTH
REF_FRAME      = TEME
TIME_SYSTEM    = UTC
MEAN_ELEMENT_THEORY = SGP/SGP4

EPOCH          = 2025-11-26T04:00:03.000096
MEAN_MOTION    = 15.90551575
ECCENTRICITY   = .000146
INCLINATION    = 42.9984
RA_OF_ASC_NODE = 224.3611
ARG_OF_PERICENTER = 276.3564
MEAN_ANOMALY   = 63.3794

EPHEMERIS_TYPE = 0
CLASSIFICATION_TYPE = U
NORAD_CAT_ID   = 66505
ELEMENT_SET_NO = 999
REV_AT_EPOCH   = 297
BSTAR          = -.49659E-2
MEAN_MOTION_DOT = -.1391655E-1
MEAN_MOTION_DDOT = 0

